2025-292A               
1 66993U 25292A   26009.60536084  .00004811  00000+0  34436-3 0  9998
2 66993  97.6492  86.8834 0015649 172.4923 187.6540 15.04797861  4588
THE ARAB SATELLITE 813  
1 66994U 25292B   26009.60427549  .00005601  00000+0  39932-3 0  9998
2 66994  97.6503  86.8884 0015456 172.8964 187.2484 15.04873513  4584
2025-292C               
1 66995U 25292C   26009.60501619  .00006050  00000+0  43186-3 0  9995
2 66995  97.6493  86.8840 0015662 171.1792 188.9713 15.04794847  4580
2025-292D               
1 66996U 25292D   26009.60391886  .00004108  00000+0  29457-3 0  9996
2 66996  97.6490  86.8836 0014833 174.6531 185.4856 15.04820654  4587
2025-292E               
1 66997U 25292E   26009.60165178  .00004618  00000+0  32919-3 0  9993
2 66997  97.6509  86.8946 0015128 175.9887 184.1464 15.04980058  4572
2025-292F               
1 66998U 25292F   26009.59785324  .00005956  00000+0  42037-3 0  9991
2 66998  97.6527  86.9072 0016300 176.9431 183.1898 15.05218025  4583
2025-292G               
1 66999U 25292G   26009.59655533  .00006019  00000+0  42413-3 0  9999
2 66999  97.6535  86.9124 0015760 178.6722 181.4549 15.05283198  4589
2025-292H               
1 67000U 25292H   26009.59582510  .00007321  00000+0  51362-3 0  9997
2 67000  97.6549  86.9183 0015608 178.7752 181.3515 15.05369537  4458
2025-292J               
1 67001U 25292J   26009.60834120  .00006232  00000+0  44564-3 0  9993
2 67001  97.6526  86.8925 0016041 169.6946 190.4612 15.04709266  4582
ZK-1A R/B               
1 67002U 25292K   26009.19121632  .00172234  10585-4  69544-3 0  9990
2 67002  97.7160  89.3485 0188068 264.2650  93.7140 15.64277491  4677
STARLINK-35660          
1 67003U 25293A   26009.66681208  .00071003  00000+0  11453-2 0  9997
2 67003  69.9998 244.9995 0004151 296.8852  63.1910 15.52546728  6002
STARLINK-35913          
1 67004U 25293B   26009.66646580  .00066755  00000+0  10770-2 0  9991
2 67004  69.9997 244.9978 0003251 262.9738  97.1079 15.52562249  6009
