CCSDS_OMM_VERS = 2.0
CREATION_DATE  = 
ORIGINATOR     = 

OBJECT_NAME    = 2025-292A
OBJECT_ID      = 2025-292A
CENTER_NAME    = EARTH
REF_FRAME      = TEME
TIME_SYSTEM    = UTC
MEAN_ELEMENT_THEORY = SGP/SGP4

EPOCH          = 2026-01-09T14:31:43.176576
MEAN_MOTION    = 15.04797861
ECCENTRICITY   = .00156496
INCLINATION    = 97.6492
RA_OF_ASC_NODE = 86.8834
ARG_OF_PERICENTER = 172.4923
MEAN_ANOMALY   = 187.6540

EPHEMERIS_TYPE = 0
CLASSIFICATION_TYPE = U
NORAD_CAT_ID   = 66993
ELEMENT_SET_NO = 999
REV_AT_EPOCH   = 458
BSTAR          = .34436271E-3
MEAN_MOTION_DOT = .4811E-4
MEAN_MOTION_DDOT = 0

CCSDS_OMM_VERS = 2.0
CREATION_DATE  = 
ORIGINATOR     = 

OBJECT_NAME    = THE ARAB SATELLITE 813
OBJECT_ID      = 2025-292B
CENTER_NAME    = EARTH
REF_FRAME      = TEME
TIME_SYSTEM    = UTC
MEAN_ELEMENT_THEORY = SGP/SGP4

EPOCH          = 2026-01-09T14:30:09.402336
MEAN_MOTION    = 15.04873513
ECCENTRICITY   = .00154563
INCLINATION    = 97.6503
RA_OF_ASC_NODE = 86.8884
ARG_OF_PERICENTER = 172.8964
MEAN_ANOMALY   = 187.2484

EPHEMERIS_TYPE = 0
CLASSIFICATION_TYPE = U
NORAD_CAT_ID   = 66994
ELEMENT_SET_NO = 999
REV_AT_EPOCH   = 458
BSTAR          = .39932244E-3
MEAN_MOTION_DOT = .5601E-4
MEAN_MOTION_DDOT = 0

CCSDS_OMM_VERS = 2.0
CREATION_DATE  = 
ORIGINATOR     = 

OBJECT_NAME    = 2025-292C
OBJECT_ID      = 2025-292C
CENTER_NAME    = EARTH
REF_FRAME      = TEME
TIME_SYSTEM    = UTC
MEAN_ELEMENT_THEORY = SGP/SGP4

EPOCH          = 2026-01-09T14:31:13.398816
MEAN_MOTION    = 15.04794847
ECCENTRICITY   = .0015662
INCLINATION    = 97.6493
RA_OF_ASC_NODE = 86.8840
ARG_OF_PERICENTER = 171.1792
MEAN_ANOMALY   = 188.9713

EPHEMERIS_TYPE = 0
CLASSIFICATION_TYPE = U
NORAD_CAT_ID   = 66995
ELEMENT_SET_NO = 999
REV_AT_EPOCH   = 458
BSTAR          = .43186205E-3
MEAN_MOTION_DOT = .605E-4
MEAN_MOTION_DDOT = 0

CCSDS_OMM_VERS = 2.0
CREATION_DATE  = 
ORIGINATOR     = 

OBJECT_NAME    = 2025-292D
OBJECT_ID      = 2025-292D
CENTER_NAME    = EARTH
REF_FRAME      = TEME
TIME_SYSTEM    = UTC
MEAN_ELEMENT_THEORY = SGP/SGP4

EPOCH          = 2026-01-09T14:29:38.589504
MEAN_MOTION    = 15.04820654
ECCENTRICITY   = .00148332
INCLINATION    = 97.6490
RA_OF_ASC_NODE = 86.8836
ARG_OF_PERICENTER = 174.6531
MEAN_ANOMALY   = 185.4856

EPHEMERIS_TYPE = 0
CLASSIFICATION_TYPE = U
NORAD_CAT_ID   = 66996
ELEMENT_SET_NO = 999
REV_AT_EPOCH   = 458
BSTAR          = .29456755E-3
MEAN_MOTION_DOT = .4108E-4
MEAN_MOTION_DDOT = 0

CCSDS_OMM_VERS = 2.0
CREATION_DATE  = 
ORIGINATOR     = 

OBJECT_NAME    = 2025-292E
OBJECT_ID      = 2025-292E
CENTER_NAME    = EARTH
REF_FRAME      = TEME
TIME_SYSTEM    = UTC
MEAN_ELEMENT_THEORY = SGP/SGP4

EPOCH          = 2026-01-09T14:26:22.713792
MEAN_MOTION    = 15.04980058
ECCENTRICITY   = .00151283
INCLINATION    = 97.6509
RA_OF_ASC_NODE = 86.8946
ARG_OF_PERICENTER = 175.9887
MEAN_ANOMALY   = 184.1464

EPHEMERIS_TYPE = 0
CLASSIFICATION_TYPE = U
NORAD_CAT_ID   = 66997
ELEMENT_SET_NO = 999
REV_AT_EPOCH   = 457
BSTAR          = .32918984E-3
MEAN_MOTION_DOT = .4618E-4
MEAN_MOTION_DDOT = 0

CCSDS_OMM_VERS = 2.0
CREATION_DATE  = 
ORIGINATOR     = 

OBJECT_NAME    = 2025-292F
OBJECT_ID      = 2025-292F
CENTER_NAME    = EARTH
REF_FRAME      = TEME
TIME_SYSTEM    = UTC
MEAN_ELEMENT_THEORY = SGP/SGP4

EPOCH          = 2026-01-09T14:20:54.519936
MEAN_MOTION    = 15.05218025
ECCENTRICITY   = .00163
INCLINATION    = 97.6527
RA_OF_ASC_NODE = 86.9072
ARG_OF_PERICENTER = 176.9431
MEAN_ANOMALY   = 183.1898

EPHEMERIS_TYPE = 0
CLASSIFICATION_TYPE = U
NORAD_CAT_ID   = 66998
ELEMENT_SET_NO = 999
REV_AT_EPOCH   = 458
BSTAR          = .42037253E-3
MEAN_MOTION_DOT = .5956E-4
MEAN_MOTION_DDOT = 0

CCSDS_OMM_VERS = 2.0
CREATION_DATE  = 
ORIGINATOR     = 

OBJECT_NAME    = 2025-292G
OBJECT_ID      = 2025-292G
CENTER_NAME    = EARTH
REF_FRAME      = TEME
TIME_SYSTEM    = UTC
MEAN_ELEMENT_THEORY = SGP/SGP4

EPOCH          = 2026-01-09T14:19:02.380512
MEAN_MOTION    = 15.05283198
ECCENTRICITY   = .00157601
INCLINATION    = 97.6535
RA_OF_ASC_NODE = 86.9124
ARG_OF_PERICENTER = 178.6722
MEAN_ANOMALY   = 181.4549

EPHEMERIS_TYPE = 0
CLASSIFICATION_TYPE = U
NORAD_CAT_ID   = 66999
ELEMENT_SET_NO = 999
REV_AT_EPOCH   = 458
BSTAR          = .4241292E-3
MEAN_MOTION_DOT = .6019E-4
MEAN_MOTION_DDOT = 0

CCSDS_OMM_VERS = 2.0
CREATION_DATE  = 
ORIGINATOR     = 

OBJECT_NAME    = 2025-292H
OBJECT_ID      = 2025-292H
CENTER_NAME    = EARTH
REF_FRAME      = TEME
TIME_SYSTEM    = UTC
MEAN_ELEMENT_THEORY = SGP/SGP4

EPOCH          = 2026-01-09T14:17:59.288640
MEAN_MOTION    = 15.05369537
ECCENTRICITY   = .00156086
INCLINATION    = 97.6549
RA_OF_ASC_NODE = 86.9183
ARG_OF_PERICENTER = 178.7752
MEAN_ANOMALY   = 181.3515

EPHEMERIS_TYPE = 0
CLASSIFICATION_TYPE = U
NORAD_CAT_ID   = 67000
ELEMENT_SET_NO = 999
REV_AT_EPOCH   = 445
BSTAR          = .51361958E-3
MEAN_MOTION_DOT = .7321E-4
MEAN_MOTION_DDOT = 0

CCSDS_OMM_VERS = 2.0
CREATION_DATE  = 
ORIGINATOR     = 

OBJECT_NAME    = 2025-292J
OBJECT_ID      = 2025-292J
CENTER_NAME    = EARTH
REF_FRAME      = TEME
TIME_SYSTEM    = UTC
MEAN_ELEMENT_THEORY = SGP/SGP4

EPOCH          = 2026-01-09T14:36:00.679680
MEAN_MOTION    = 15.04709266
ECCENTRICITY   = .00160414
INCLINATION    = 97.6526
RA_OF_ASC_NODE = 86.8925
ARG_OF_PERICENTER = 169.6946
MEAN_ANOMALY   = 190.4612

EPHEMERIS_TYPE = 0
CLASSIFICATION_TYPE = U
NORAD_CAT_ID   = 67001
ELEMENT_SET_NO = 999
REV_AT_EPOCH   = 458
BSTAR          = .44564194E-3
MEAN_MOTION_DOT = .6232E-4
MEAN_MOTION_DDOT = 0

CCSDS_OMM_VERS = 2.0
CREATION_DATE  = 
ORIGINATOR     = 

OBJECT_NAME    = ZK-1A R/B
OBJECT_ID      = 2025-292K
CENTER_NAME    = EARTH
REF_FRAME      = TEME
TIME_SYSTEM    = UTC
MEAN_ELEMENT_THEORY = SGP/SGP4

EPOCH          = 2026-01-09T04:35:21.090048
MEAN_MOTION    = 15.64277491
ECCENTRICITY   = .0188068
INCLINATION    = 97.7160
RA_OF_ASC_NODE = 89.3485
ARG_OF_PERICENTER = 264.2650
MEAN_ANOMALY   = 93.7140

EPHEMERIS_TYPE = 0
CLASSIFICATION_TYPE = U
NORAD_CAT_ID   = 67002
ELEMENT_SET_NO = 999
REV_AT_EPOCH   = 467
BSTAR          = .69544E-3
MEAN_MOTION_DOT = .172234E-2
MEAN_MOTION_DDOT = .10585E-4

CCSDS_OMM_VERS = 2.0
CREATION_DATE  = 
ORIGINATOR     = 

OBJECT_NAME    = STARLINK-35660
OBJECT_ID      = 2025-293A
CENTER_NAME    = EARTH
REF_FRAME      = TEME
TIME_SYSTEM    = UTC
MEAN_ELEMENT_THEORY = SGP/SGP4

EPOCH          = 2026-01-09T16:00:12.563712
MEAN_MOTION    = 15.52546728
ECCENTRICITY   = .00041518
INCLINATION    = 69.9998
RA_OF_ASC_NODE = 244.9995
ARG_OF_PERICENTER = 296.8852
MEAN_ANOMALY   = 63.1910

EPHEMERIS_TYPE = 0
CLASSIFICATION_TYPE = U
NORAD_CAT_ID   = 67003
ELEMENT_SET_NO = 999
REV_AT_EPOCH   = 600
BSTAR          = .11452907E-2
MEAN_MOTION_DOT = .71003E-3
MEAN_MOTION_DDOT = 0

CCSDS_OMM_VERS = 2.0
CREATION_DATE  = 
ORIGINATOR     = 

OBJECT_NAME    = STARLINK-35913
OBJECT_ID      = 2025-293B
CENTER_NAME    = EARTH
REF_FRAME      = TEME
TIME_SYSTEM    = UTC
MEAN_ELEMENT_THEORY = SGP/SGP4

EPOCH          = 2026-01-09T15:59:42.645120
MEAN_MOTION    = 15.52562249
ECCENTRICITY   = .00032512
INCLINATION    = 69.9997
RA_OF_ASC_NODE = 244.9978
ARG_OF_PERICENTER = 262.9738
MEAN_ANOMALY   = 97.1079

EPHEMERIS_TYPE = 0
CLASSIFICATION_TYPE = U
NORAD_CAT_ID   = 67004
ELEMENT_SET_NO = 999
REV_AT_EPOCH   = 600
BSTAR          = .1077041E-2
MEAN_MOTION_DOT = .66755E-3
MEAN_MOTION_DDOT = 0

